{"type": "FeatureCollection", "features": [ {"type": "Feature", "properties": {"norad_id": 66866, "name": "STARLINK-36126", "group": "last-30-days", "lat": -20.72437887204249, "lon": 67.55331509259693, "alt_km": 342.2625418141961, "timestamp": "2025-12-17T17:50:17.974543+00:00", "meta": {"OBJECT_NAME": "STARLINK-36126", "OBJECT_ID": "2025-281U", "EPOCH": "2025-12-17T06:00:00.999648", "MEAN_MOTION": 15.7800637, "ECCENTRICITY": 0.0001449, "INCLINATION": 43.0006, "RA_OF_ASC_NODE": 94.5112, "ARG_OF_PERICENTER": 269.5389, "MEAN_ANOMALY": 135.2323, "EPHEMERIS_TYPE": 0, "CLASSIFICATION_TYPE": "U", "NORAD_CAT_ID": 66866, "ELEMENT_SET_NO": 999, "REV_AT_EPOCH": 215, "BSTAR": -0.0099844801, "MEAN_MOTION_DOT": -0.01535308, "MEAN_MOTION_DDOT": 0}, "tle": {"line1": "1 66866U 25281U   25351.25001157 -.01535308  00000+0 -99845-2 0  9990", "line2": "2 66866  43.0006  94.5112 0001449 269.5389 135.2323 15.78006370  2153"}}, "geometry": {"type": "Point", "coordinates": [67.55331509259693, -20.72437887204249]}}, {"type": "Feature", "properties": {"norad_id": 66867, "name": "STARLINK-36101", "group": "last-30-days", "lat": -19.384814529398593, "lon": 69.31898095909406, "alt_km": 342.62654355991253, "timestamp": "2025-12-17T17:50:17.974553+00:00", "meta": {"OBJECT_NAME": "STARLINK-36101", "OBJECT_ID": "2025-281V", "EPOCH": "2025-12-17T06:00:00.999648", "MEAN_MOTION": 15.77857269, "ECCENTRICITY": 0.00015577, "INCLINATION": 43.0008, "RA_OF_ASC_NODE": 94.5051, "ARG_OF_PERICENTER": 269.2609, "MEAN_ANOMALY": 137.9279, "EPHEMERIS_TYPE": 0, "CLASSIFICATION_TYPE": "U", "NORAD_CAT_ID": 66867, "ELEMENT_SET_NO": 999, "REV_AT_EPOCH": 196, "BSTAR": -0.010163387, "MEAN_MOTION_DOT": -0.01550205, "MEAN_MOTION_DDOT": 0}, "tle": {"line1": "1 66867U 25281V   25351.25001157 -.01550205  00000+0 -10163-1 0  9999", "line2": "2 66867  43.0008  94.5051 0001557 269.2609 137.9279 15.77857269  1967"}}, "geometry": {"type": "Point", "coordinates": [69.31898095909406, -19.384814529398593]}}, {"type": "Feature", "properties": {"norad_id": 66868, "name": "STARLINK-36108", "group": "last-30-days", "lat": -18.033080061718707, "lon": 71.04894164150447, "alt_km": 343.1225962439694, "timestamp": "2025-12-17T17:50:17.974565+00:00", "meta": {"OBJECT_NAME": "STARLINK-36108", "OBJECT_ID": "2025-281W", "EPOCH": "2025-12-17T06:00:00.999648", "MEAN_MOTION": 15.77680941, "ECCENTRICITY": 0.0001623, "INCLINATION": 43.0009, "RA_OF_ASC_NODE": 94.4983, "ARG_OF_PERICENTER": 267.199, "MEAN_ANOMALY": 142.4465, "EPHEMERIS_TYPE": 0, "CLASSIFICATION_TYPE": "U", "NORAD_CAT_ID": 66868, "ELEMENT_SET_NO": 999, "REV_AT_EPOCH": 196, "BSTAR": -0.010342608, "MEAN_MOTION_DOT": -0.01563134, "MEAN_MOTION_DDOT": 0}, "tle": {"line1": "1 66868U 25281W   25351.25001157 -.01563134  00000+0 -10343-1 0  9995", "line2": "2 66868  43.0009  94.4983 0001623 267.1990 142.4465 15.77680941  1965"}}, "geometry": {"type": "Point", "coordinates": [71.04894164150447, -18.033080061718707]}}, {"type": "Feature", "properties": {"norad_id": 66869, "name": "STARLINK-36092", "group": "last-30-days", "lat": -16.73586036923837, "lon": 72.66687479093093, "alt_km": 343.1843228185562, "timestamp": "2025-12-17T17:50:17.974575+00:00", "meta": {"OBJECT_NAME": "STARLINK-36092", "OBJECT_ID": "2025-281X", "EPOCH": "2025-12-17T06:00:00.999648", "MEAN_MOTION": 15.77580607, "ECCENTRICITY": 0.00016476, "INCLINATION": 43.0009, "RA_OF_ASC_NODE": 94.4927, "ARG_OF_PERICENTER": 274.4632, "MEAN_ANOMALY": 137.3959, "EPHEMERIS_TYPE": 0, "CLASSIFICATION_TYPE": "U", "NORAD_CAT_ID": 66869, "ELEMENT_SET_NO": 999, "REV_AT_EPOCH": 215, "BSTAR": -0.010475744, "MEAN_MOTION_DOT": -0.01574424, "MEAN_MOTION_DDOT": 0}, "tle": {"line1": "1 66869U 25281X   25351.25001157 -.01574424  00000+0 -10476-1 0  9997", "line2": "2 66869  43.0009  94.4927 0001647 274.4632 137.3959 15.77580607  2155"}}, "geometry": {"type": "Point", "coordinates": [72.66687479093093, -16.73586036923837]}}, {"type": "Feature", "properties": {"norad_id": 66870, "name": "STARLINK-36114", "group": "last-30-days", "lat": -15.383509801068548, "lon": 74.31374309858312, "alt_km": 343.7438361064733, "timestamp": "2025-12-17T17:50:17.974585+00:00", "meta": {"OBJECT_NAME": "STARLINK-36114", "OBJECT_ID": "2025-281Y", "EPOCH": "2025-12-17T06:00:00.999648", "MEAN_MOTION": 15.7737328, "ECCENTRICITY": 0.0001764, "INCLINATION": 43.0005, "RA_OF_ASC_NODE": 94.4865, "ARG_OF_PERICENTER": 266.0907, "MEAN_ANOMALY": 148.1822, "EPHEMERIS_TYPE": 0, "CLASSIFICATION_TYPE": "U", "NORAD_CAT_ID": 66870, "ELEMENT_SET_NO": 999, "REV_AT_EPOCH": 202, "BSTAR": -0.010300096, "MEAN_MOTION_DOT": -0.01538781, "MEAN_MOTION_DDOT": 0}, "tle": {"line1": "1 66870U 25281Y   25351.25001157 -.01538781  00000+0 -10300-1 0  9991", "line2": "2 66870  43.0005  94.4865 0001764 266.0907 148.1822 15.77373280  2028"}}, "geometry": {"type": "Point", "coordinates": [74.31374309858312, -15.383509801068548]}}, {"type": "Feature", "properties": {"norad_id": 66871, "name": "STARLINK-36095", "group": "last-30-days", "lat": -14.049372572557004, "lon": 75.9041082484706, "alt_km": 344.0634533952998, "timestamp": "2025-12-17T17:50:17.974595+00:00", "meta": {"OBJECT_NAME": "STARLINK-36095", "OBJECT_ID": "2025-281Z", "EPOCH": "2025-12-17T06:00:00.999648", "MEAN_MOTION": 15.77159822, "ECCENTRICITY": 0.00016882, "INCLINATION": 43.0008, "RA_OF_ASC_NODE": 94.4805, "ARG_OF_PERICENTER": 270.5578, "MEAN_ANOMALY": 146.1034, "EPHEMERIS_TYPE": 0, "CLASSIFICATION_TYPE": "U", "NORAD_CAT_ID": 66871, "ELEMENT_SET_NO": 999, "REV_AT_EPOCH": 215, "BSTAR": -0.010155931, "MEAN_MOTION_DOT": -0.01507049, "MEAN_MOTION_DDOT": 0}, "tle": {"line1": "1 66871U 25281Z   25351.25001157 -.01507049  00000+0 -10156-1 0  9994", "line2": "2 66871  43.0008  94.4805 0001688 270.5578 146.1034 15.77159822  2156"}}, "geometry": {"type": "Point", "coordinates": [75.9041082484706, -14.049372572557004]}}, {"type": "Feature", "properties": {"norad_id": 66872, "name": "STARLINK-36082", "group": "last-30-days", "lat": -12.765622464095841, "lon": 77.40510862743278, "alt_km": 344.3058123293258, "timestamp": "2025-12-17T17:50:17.974605+00:00", "meta": {"OBJECT_NAME": "STARLINK-36082", "OBJECT_ID": "2025-281AA", "EPOCH": "2025-12-17T06:00:00.999648", "MEAN_MOTION": 15.7708135, "ECCENTRICITY": 0.00015709, "INCLINATION": 43.0008, "RA_OF_ASC_NODE": 94.475, "ARG_OF_PERICENTER": 267.9299, "MEAN_ANOMALY": 150.8224, "EPHEMERIS_TYPE": 0, "CLASSIFICATION_TYPE": "U", "NORAD_CAT_ID": 66872, "ELEMENT_SET_NO": 999, "REV_AT_EPOCH": 202, "BSTAR": -0.010205617, "MEAN_MOTION_DOT": -0.01508743, "MEAN_MOTION_DDOT": 0}, "tle": {"line1": "1 66872U 25281AA  25351.25001157 -.01508743  00000+0 -10206-1 0  9993", "line2": "2 66872  43.0008  94.4750 0001570 267.9299 150.8224 15.77081350  2025"}}, "geometry": {"type": "Point", "coordinates": [77.40510862743278, -12.765622464095841]}}, {"type": "Feature", "properties": {"norad_id": 66873, "name": "STARLINK-36128", "group": "last-30-days", "lat": -8.906779453977613, "lon": 81.77969604429782, "alt_km": 345.3051006284504, "timestamp": "2025-12-17T17:50:17.974617+00:00", "meta": {"OBJECT_NAME": "STARLINK-36128", "OBJECT_ID": "2025-281AB", "EPOCH": "2025-12-17T06:00:00.999648", "MEAN_MOTION": 15.76708895, "ECCENTRICITY": 0.00016283, "INCLINATION": 43.0004, "RA_OF_ASC_NODE": 94.4583, "ARG_OF_PERICENTER": 269.5363, "MEAN_ANOMALY": 155.7526, "EPHEMERIS_TYPE": 0, "CLASSIFICATION_TYPE": "U", "NORAD_CAT_ID": 66873, "ELEMENT_SET_NO": 999, "REV_AT_EPOCH": 215, "BSTAR": -0.011011169, "MEAN_MOTION_DOT": -0.01620154, "MEAN_MOTION_DDOT": 0}, "tle": {"line1": "1 66873U 25281AB  25351.25001157 -.01620154  00000+0 -11011-1 0  9990", "line2": "2 66873  43.0004  94.4583 0001628 269.5363 155.7526 15.76708895  2152"}}, "geometry": {"type": "Point", "coordinates": [81.77969604429782, -8.906779453977613]}}, {"type": "Feature", "properties": {"norad_id": 66874, "name": "STARLINK-36129", "group": "last-30-days", "lat": -11.424344530391124, "lon": 78.94706989508117, "alt_km": 344.5008596096677, "timestamp": "2025-12-17T17:50:17.974629+00:00", "meta": {"OBJECT_NAME": "STARLINK-36129", "OBJECT_ID": "2025-281AC", "EPOCH": "2025-12-17T06:00:00.999648", "MEAN_MOTION": 15.76923405, "ECCENTRICITY": 0.00018937, "INCLINATION": 43.0005, "RA_OF_ASC_NODE": 94.4694, "ARG_OF_PERICENTER": 268.7887, "MEAN_ANOMALY": 152.245, "EPHEMERIS_TYPE": 0, "CLASSIFICATION_TYPE": "U", "NORAD_CAT_ID": 66874, "ELEMENT_SET_NO": 999, "REV_AT_EPOCH": 215, "BSTAR": -0.010144596, "MEAN_MOTION_DOT": -0.01491695, "MEAN_MOTION_DDOT": 0}, "tle": {"line1": "1 66874U 25281AC  25351.25001157 -.01491695  00000+0 -10145-1 0  9994", "line2": "2 66874  43.0005  94.4694 0001893 268.7887 152.2450 15.76923405  2157"}}, "geometry": {"type": "Point", "coordinates": [78.94706989508117, -11.424344530391124]}}, {"type": "Feature", "properties": {"norad_id": 66875, "name": "STARLINK-36053", "group": "last-30-days", "lat": -7.635656970141439, "lon": 83.18497969899602, "alt_km": 345.6621599840046, "timestamp": "2025-12-17T17:50:17.974641+00:00", "meta": {"OBJECT_NAME": "STARLINK-36053", "OBJECT_ID": "2025-281AD", "EPOCH": "2025-12-17T06:00:00.999648", "MEAN_MOTION": 15.76664456, "ECCENTRICITY": 0.00012141, "INCLINATION": 43.0007, "RA_OF_ASC_NODE": 94.4526, "ARG_OF_PERICENTER": 279.8148, "MEAN_ANOMALY": 147.5975, "EPHEMERIS_TYPE": 0, "CLASSIFICATION_TYPE": "U", "NORAD_CAT_ID": 66875, "ELEMENT_SET_NO": 999, "REV_AT_EPOCH": 215, "BSTAR": -0.012130852, "MEAN_MOTION_DOT": -0.01761578, "MEAN_MOTION_DDOT": 0}, "tle": {"line1": "1 66875U 25281AD  25351.25001157 -.01761578  00000+0 -12131-1 0  9992", "line2": "2 66875  43.0007  94.4526 0001214 279.8148 147.5975 15.76664456  2151"}}, "geometry": {"type": "Point", "coordinates": [83.18497969899602, -7.635656970141439]}}]}